[{"OBJECT_NAME":"XM-5","OBJECT_ID":"2010-053A","EPOCH":"2026-03-04T11:43:38.558208","MEAN_MOTION":1.0027021,"ECCENTRICITY":0.000326,"INCLINATION":0.0669,"RA_OF_ASC_NODE":274.6489,"ARG_OF_PERICENTER":252.842,"MEAN_ANOMALY":55.4355,"EPHEMERIS_TYPE":0,"CLASSIFICATION_TYPE":"U","NORAD_CAT_ID":37185,"ELEMENT_SET_NO":999,"REV_AT_EPOCH":5643,"BSTAR":0,"MEAN_MOTION_DOT":-3.4e-7,"MEAN_MOTION_DDOT":0},{"OBJECT_NAME":"BSAT-3B","OBJECT_ID":"2010-056B","EPOCH":"2026-03-04T20:18:28.178208","MEAN_MOTION":1.00270385,"ECCENTRICITY":0.0001786,"INCLINATION":0.0836,"RA_OF_ASC_NODE":248.136,"ARG_OF_PERICENTER":35.6073,"MEAN_ANOMALY":293.2912,"EPHEMERIS_TYPE":0,"CLASSIFICATION_TYPE":"U","NORAD_CAT_ID":37207,"ELEMENT_SET_NO":999,"REV_AT_EPOCH":5105,"BSTAR":0,"MEAN_MOTION_DOT":-3.6e-6,"MEAN_MOTION_DDOT":0},{"OBJECT_NAME":"BEIDOU-2 G4","OBJECT_ID":"2010-057A","EPOCH":"2026-03-04T19:49:10.122240","MEAN_MOTION":1.00272165,"ECCENTRICITY":0.000902,"INCLINATION":3.3879,"RA_OF_ASC_NODE":69.548,"ARG_OF_PERICENTER":210.9407,"MEAN_ANOMALY":339.3787,"EPHEMERIS_TYPE":0,"CLASSIFICATION_TYPE":"U","NORAD_CAT_ID":37210,"ELEMENT_SET_NO":999,"REV_AT_EPOCH":5624,"BSTAR":0,"MEAN_MOTION_DOT":-1.21e-6,"MEAN_MOTION_DDOT":0},{"OBJECT_NAME":"SKYTERRA 1","OBJECT_ID":"2010-061A","EPOCH":"2026-03-04T01:34:29.043552","MEAN_MOTION":1.00271469,"ECCENTRICITY":0.00016038,"INCLINATION":4.9016,"RA_OF_ASC_NODE":50.914,"ARG_OF_PERICENTER":293.9262,"MEAN_ANOMALY":99.2594,"EPHEMERIS_TYPE":0,"CLASSIFICATION_TYPE":"U","NORAD_CAT_ID":37218,"ELEMENT_SET_NO":999,"REV_AT_EPOCH":5614,"BSTAR":0,"MEAN_MOTION_DOT":-1.28e-6,"MEAN_MOTION_DDOT":0},{"OBJECT_NAME":"HYLAS 1","OBJECT_ID":"2010-065A","EPOCH":"2026-03-04T09:10:38.507232","MEAN_MOTION":1.00650076,"ECCENTRICITY":0.00030891,"INCLINATION":5.3776,"RA_OF_ASC_NODE":74.3063,"ARG_OF_PERICENTER":330.2191,"MEAN_ANOMALY":254.5655,"EPHEMERIS_TYPE":0,"CLASSIFICATION_TYPE":"U","NORAD_CAT_ID":37237,"ELEMENT_SET_NO":999,"REV_AT_EPOCH":583,"BSTAR":0,"MEAN_MOTION_DOT":4.3e-7,"MEAN_MOTION_DDOT":0},{"OBJECT_NAME":"INTELSAT 17 (IS-17)","OBJECT_ID":"2010-065B","EPOCH":"2026-03-04T15:37:22.537920","MEAN_MOTION":1.00272648,"ECCENTRICITY":0.0002426,"INCLINATION":0.0187,"RA_OF_ASC_NODE":197.9066,"ARG_OF_PERICENTER":151.6096,"MEAN_ANOMALY":113.2049,"EPHEMERIS_TYPE":0,"CLASSIFICATION_TYPE":"U","NORAD_CAT_ID":37238,"ELEMENT_SET_NO":999,"REV_AT_EPOCH":5219,"BSTAR":0,"MEAN_MOTION_DOT":-1.2e-7,"MEAN_MOTION_DDOT":0},{"OBJECT_NAME":"EUTELSAT KA-SAT 9A","OBJECT_ID":"2010-069A","EPOCH":"2026-03-04T09:02:38.798880","MEAN_MOTION":1.00273124,"ECCENTRICITY":0.00025875,"INCLINATION":0.0565,"RA_OF_ASC_NODE":356.5485,"ARG_OF_PERICENTER":146.5926,"MEAN_ANOMALY":163.6445,"EPHEMERIS_TYPE":0,"CLASSIFICATION_TYPE":"U","NORAD_CAT_ID":37258,"ELEMENT_SET_NO":999,"REV_AT_EPOCH":4295,"BSTAR":0,"MEAN_MOTION_DOT":5.0e-7,"MEAN_MOTION_DDOT":0},{"OBJECT_NAME":"HISPASAT 30W-5","OBJECT_ID":"2010-070A","EPOCH":"2026-03-04T09:34:38.603424","MEAN_MOTION":1.0027007,"ECCENTRICITY":0.00032869,"INCLINATION":0.0141,"RA_OF_ASC_NODE":159.5691,"ARG_OF_PERICENTER":204.3922,"MEAN_ANOMALY":271.8207,"EPHEMERIS_TYPE":0,"CLASSIFICATION_TYPE":"U","NORAD_CAT_ID":37264,"ELEMENT_SET_NO":999,"REV_AT_EPOCH":5213,"BSTAR":0,"MEAN_MOTION_DOT":-2.28e-6,"MEAN_MOTION_DDOT":0},{"OBJECT_NAME":"KOREASAT 6","OBJECT_ID":"2010-070B","EPOCH":"2026-03-04T16:28:38.707104","MEAN_MOTION":1.00269442,"ECCENTRICITY":0.0002423,"INCLINATION":0.0346,"RA_OF_ASC_NODE":262.5661,"ARG_OF_PERICENTER":71.3665,"MEAN_ANOMALY":235.5166,"EPHEMERIS_TYPE":0,"CLASSIFICATION_TYPE":"U","NORAD_CAT_ID":37265,"ELEMENT_SET_NO":999,"REV_AT_EPOCH":5572,"BSTAR":0,"MEAN_MOTION_DOT":-1.23e-6,"MEAN_MOTION_DDOT":0},{"OBJECT_NAME":"ELEKTRO-L 1 (GOMS 2)","OBJECT_ID":"2011-001A","EPOCH":"2026-03-03T22:18:04.303008","MEAN_MOTION":1.00174519,"ECCENTRICITY":0.0003277,"INCLINATION":9.4482,"RA_OF_ASC_NODE":55.5616,"ARG_OF_PERICENTER":9.9871,"MEAN_ANOMALY":1.0142,"EPHEMERIS_TYPE":0,"CLASSIFICATION_TYPE":"U","NORAD_CAT_ID":37344,"ELEMENT_SET_NO":999,"REV_AT_EPOCH":5543,"BSTAR":0,"MEAN_MOTION_DOT":-2.73e-6,"MEAN_MOTION_DDOT":0},{"OBJECT_NAME":"BEIDOU-2 IGSO-3","OBJECT_ID":"2011-013A","EPOCH":"2026-02-27T21:48:44.352288","MEAN_MOTION":1.00294022,"ECCENTRICITY":0.00350296,"INCLINATION":62.2642,"RA_OF_ASC_NODE":41.1818,"ARG_OF_PERICENTER":190.8154,"MEAN_ANOMALY":358.7681,"EPHEMERIS_TYPE":0,"CLASSIFICATION_TYPE":"U","NORAD_CAT_ID":37384,"ELEMENT_SET_NO":999,"REV_AT_EPOCH":5456,"BSTAR":0,"MEAN_MOTION_DOT":-1.54e-6,"MEAN_MOTION_DDOT":0},{"OBJECT_NAME":"INTELSAT 28 (IS-28)","OBJECT_ID":"2011-016A","EPOCH":"2026-03-04T10:52:38.525952","MEAN_MOTION":1.00272423,"ECCENTRICITY":0.0004655,"INCLINATION":1.5355,"RA_OF_ASC_NODE":83.9838,"ARG_OF_PERICENTER":258.1783,"MEAN_ANOMALY":311.4864,"EPHEMERIS_TYPE":0,"CLASSIFICATION_TYPE":"U","NORAD_CAT_ID":37392,"ELEMENT_SET_NO":999,"REV_AT_EPOCH":5223,"BSTAR":0,"MEAN_MOTION_DOT":-2.36e-6,"MEAN_MOTION_DDOT":0},{"OBJECT_NAME":"YAHSAT 1A","OBJECT_ID":"2011-016B","EPOCH":"2026-03-04T07:12:38.426400","MEAN_MOTION":1.00269069,"ECCENTRICITY":0.00033514,"INCLINATION":0.0104,"RA_OF_ASC_NODE":131.2011,"ARG_OF_PERICENTER":218.7759,"MEAN_ANOMALY":332.7073,"EPHEMERIS_TYPE":0,"CLASSIFICATION_TYPE":"U","NORAD_CAT_ID":37393,"ELEMENT_SET_NO":999,"REV_AT_EPOCH":4135,"BSTAR":0,"MEAN_MOTION_DOT":9.0e-7,"MEAN_MOTION_DDOT":0},{"OBJECT_NAME":"SBIRS GEO-1 (USA 230)","OBJECT_ID":"2011-019A","EPOCH":"2026-03-04T02:18:09.856224","MEAN_MOTION":1.00272141,"ECCENTRICITY":0.00022939,"INCLINATION":4.305,"RA_OF_ASC_NODE":53.0927,"ARG_OF_PERICENTER":290.1321,"MEAN_ANOMALY":264.9657,"EPHEMERIS_TYPE":0,"CLASSIFICATION_TYPE":"U","NORAD_CAT_ID":37481,"ELEMENT_SET_NO":999,"REV_AT_EPOCH":5434,"BSTAR":0,"MEAN_MOTION_DOT":9.0e-7,"MEAN_MOTION_DDOT":0},{"OBJECT_NAME":"TELSTAR 14R","OBJECT_ID":"2011-021A","EPOCH":"2026-03-04T01:45:27.989568","MEAN_MOTION":1.00272792,"ECCENTRICITY":0.00024274,"INCLINATION":0.0365,"RA_OF_ASC_NODE":269.7706,"ARG_OF_PERICENTER":79.4879,"MEAN_ANOMALY":135.9193,"EPHEMERIS_TYPE":0,"CLASSIFICATION_TYPE":"U","NORAD_CAT_ID":37602,"ELEMENT_SET_NO":999,"REV_AT_EPOCH":5478,"BSTAR":0,"MEAN_MOTION_DOT":-2.93e-6,"MEAN_MOTION_DDOT":0},{"OBJECT_NAME":"GSAT-8","OBJECT_ID":"2011-022A","EPOCH":"2026-03-04T04:34:38.601984","MEAN_MOTION":1.00272189,"ECCENTRICITY":0.00073721,"INCLINATION":1.8598,"RA_OF_ASC_NODE":83.1608,"ARG_OF_PERICENTER":214.9335,"MEAN_ANOMALY":347.5527,"EPHEMERIS_TYPE":0,"CLASSIFICATION_TYPE":"U","NORAD_CAT_ID":37605,"ELEMENT_SET_NO":999,"REV_AT_EPOCH":5216,"BSTAR":0,"MEAN_MOTION_DOT":7.3e-7,"MEAN_MOTION_DDOT":0},{"OBJECT_NAME":"ST-2","OBJECT_ID":"2011-022B","EPOCH":"2026-03-04T19:45:42.573024","MEAN_MOTION":1.00268278,"ECCENTRICITY":0.0001953,"INCLINATION":0.0221,"RA_OF_ASC_NODE":232.1831,"ARG_OF_PERICENTER":126.8805,"MEAN_ANOMALY":187.9112,"EPHEMERIS_TYPE":0,"CLASSIFICATION_TYPE":"U","NORAD_CAT_ID":37606,"ELEMENT_SET_NO":999,"REV_AT_EPOCH":5423,"BSTAR":0,"MEAN_MOTION_DOT":-2.2e-6,"MEAN_MOTION_DDOT":0}]
